[{"OBJECT_NAME":"STARLINK-3772","OBJECT_ID":"2022-041AF","EPOCH":"2026-03-09T11:44:37.283424","MEAN_MOTION":15.08841119,"ECCENTRICITY":0.0001311,"INCLINATION":53.216,"RA_OF_ASC_NODE":100.0206,"ARG_OF_PERICENTER":89.4424,"MEAN_ANOMALY":270.6719,"EPHEMERIS_TYPE":0,"CLASSIFICATION_TYPE":"U","NORAD_CAT_ID":52290,"ELEMENT_SET_NO":999,"REV_AT_EPOCH":21447,"BSTAR":4.0965015e-5,"MEAN_MOTION_DOT":3.64e-6,"MEAN_MOTION_DDOT":0},{"OBJECT_NAME":"H-2A R\/B","OBJECT_ID":"2025-141B","EPOCH":"2026-03-09T20:50:08.593728","MEAN_MOTION":14.90469893,"ECCENTRICITY":0.00923902,"INCLINATION":98.076,"RA_OF_ASC_NODE":17.3096,"ARG_OF_PERICENTER":151.0716,"MEAN_ANOMALY":209.5668,"EPHEMERIS_TYPE":0,"CLASSIFICATION_TYPE":"U","NORAD_CAT_ID":64695,"ELEMENT_SET_NO":999,"REV_AT_EPOCH":3783,"BSTAR":0.00033350933,"MEAN_MOTION_DOT":3.464e-5,"MEAN_MOTION_DDOT":0}]
